[{"OBJECT_NAME":"UWE-3","OBJECT_ID":"2013-066AG","EPOCH":"2026-04-05T03:27:40.228704","MEAN_MOTION":14.96461292,"ECCENTRICITY":0.00489732,"INCLINATION":97.8633,"RA_OF_ASC_NODE":50.7911,"ARG_OF_PERICENTER":201.3754,"MEAN_ANOMALY":158.5422,"EPHEMERIS_TYPE":0,"CLASSIFICATION_TYPE":"U","NORAD_CAT_ID":39446,"ELEMENT_SET_NO":999,"REV_AT_EPOCH":66665,"BSTAR":0.00051308131,"MEAN_MOTION_DOT":5.905e-5,"MEAN_MOTION_DDOT":0},{"OBJECT_NAME":"UNISAT-6","OBJECT_ID":"2014-033C","EPOCH":"2026-04-05T05:45:52.751232","MEAN_MOTION":14.87831103,"ECCENTRICITY":0.00441476,"INCLINATION":97.7782,"RA_OF_ASC_NODE":249.2953,"ARG_OF_PERICENTER":309.9374,"MEAN_ANOMALY":49.7967,"EPHEMERIS_TYPE":0,"CLASSIFICATION_TYPE":"U","NORAD_CAT_ID":40012,"ELEMENT_SET_NO":999,"REV_AT_EPOCH":63531,"BSTAR":0.00052492355,"MEAN_MOTION_DOT":4.828e-5,"MEAN_MOTION_DDOT":0},{"OBJECT_NAME":"DUCHIFAT-1","OBJECT_ID":"2014-033M","EPOCH":"2026-04-05T06:30:57.301920","MEAN_MOTION":15.53558422,"ECCENTRICITY":0.00030998,"INCLINATION":98.0571,"RA_OF_ASC_NODE":144.8991,"ARG_OF_PERICENTER":342.7957,"MEAN_ANOMALY":17.3189,"EPHEMERIS_TYPE":0,"CLASSIFICATION_TYPE":"U","NORAD_CAT_ID":40021,"ELEMENT_SET_NO":999,"REV_AT_EPOCH":64439,"BSTAR":0.0012683565,"MEAN_MOTION_DOT":0.00081314,"MEAN_MOTION_DDOT":0},{"OBJECT_NAME":"QB50P1","OBJECT_ID":"2014-033R","EPOCH":"2026-04-04T23:11:04.756128","MEAN_MOTION":15.17106884,"ECCENTRICITY":0.00105849,"INCLINATION":98.1002,"RA_OF_ASC_NODE":101.0367,"ARG_OF_PERICENTER":113.0107,"MEAN_ANOMALY":247.2242,"EPHEMERIS_TYPE":0,"CLASSIFICATION_TYPE":"U","NORAD_CAT_ID":40025,"ELEMENT_SET_NO":999,"REV_AT_EPOCH":64192,"BSTAR":0.00064495839,"MEAN_MOTION_DOT":0.00012738,"MEAN_MOTION_DDOT":0},{"OBJECT_NAME":"LILACSAT-2","OBJECT_ID":"2015-049K","EPOCH":"2026-04-05T06:25:12.495936","MEAN_MOTION":15.49096413,"ECCENTRICITY":0.00084792,"INCLINATION":97.4751,"RA_OF_ASC_NODE":129.4274,"ARG_OF_PERICENTER":145.8025,"MEAN_ANOMALY":214.3774,"EPHEMERIS_TYPE":0,"CLASSIFICATION_TYPE":"U","NORAD_CAT_ID":40908,"ELEMENT_SET_NO":999,"REV_AT_EPOCH":58445,"BSTAR":0.00040645435,"MEAN_MOTION_DOT":0.00022032,"MEAN_MOTION_DDOT":0},{"OBJECT_NAME":"FOX-1A (AO-85)","OBJECT_ID":"2015-058D","EPOCH":"2026-04-05T07:08:15.747072","MEAN_MOTION":14.90545783,"ECCENTRICITY":0.01283083,"INCLINATION":64.7743,"RA_OF_ASC_NODE":145.4238,"ARG_OF_PERICENTER":85.2285,"MEAN_ANOMALY":276.3465,"EPHEMERIS_TYPE":0,"CLASSIFICATION_TYPE":"U","NORAD_CAT_ID":40967,"ELEMENT_SET_NO":999,"REV_AT_EPOCH":10270,"BSTAR":0.00029543569,"MEAN_MOTION_DOT":3.212e-5,"MEAN_MOTION_DDOT":0},{"OBJECT_NAME":"CAS-2T & KS-1Q","OBJECT_ID":"2016-066G","EPOCH":"2026-04-05T04:00:00.378720","MEAN_MOTION":14.44540754,"ECCENTRICITY":0.03420937,"INCLINATION":98.3848,"RA_OF_ASC_NODE":171.7229,"ARG_OF_PERICENTER":351.3202,"MEAN_ANOMALY":8.2165,"EPHEMERIS_TYPE":0,"CLASSIFICATION_TYPE":"U","NORAD_CAT_ID":41847,"ELEMENT_SET_NO":999,"REV_AT_EPOCH":49425,"BSTAR":0.00019232501,"MEAN_MOTION_DOT":1.305e-5,"MEAN_MOTION_DDOT":0},{"OBJECT_NAME":"RADFXSAT (FOX-1B)","OBJECT_ID":"2017-073E","EPOCH":"2026-04-05T05:08:38.077440","MEAN_MOTION":15.11449824,"ECCENTRICITY":0.01529045,"INCLINATION":97.4806,"RA_OF_ASC_NODE":323.9554,"ARG_OF_PERICENTER":219.8739,"MEAN_ANOMALY":139.118,"EPHEMERIS_TYPE":0,"CLASSIFICATION_TYPE":"U","NORAD_CAT_ID":43017,"ELEMENT_SET_NO":999,"REV_AT_EPOCH":45436,"BSTAR":0.00046995974,"MEAN_MOTION_DOT":0.00010483,"MEAN_MOTION_DDOT":0},{"OBJECT_NAME":"DIWATA-2B","OBJECT_ID":"2018-084H","EPOCH":"2026-04-05T06:30:51.719616","MEAN_MOTION":15.00107256,"ECCENTRICITY":0.00138846,"INCLINATION":98.1036,"RA_OF_ASC_NODE":288.4008,"ARG_OF_PERICENTER":49.4829,"MEAN_ANOMALY":310.76,"EPHEMERIS_TYPE":0,"CLASSIFICATION_TYPE":"U","NORAD_CAT_ID":43678,"ELEMENT_SET_NO":999,"REV_AT_EPOCH":40528,"BSTAR":0.00022509414,"MEAN_MOTION_DOT":2.747e-5,"MEAN_MOTION_DDOT":0},{"OBJECT_NAME":"ES'HAIL 2","OBJECT_ID":"2018-090A","EPOCH":"2026-04-05T05:12:38.653056","MEAN_MOTION":1.00269802,"ECCENTRICITY":0.00012757,"INCLINATION":0.018,"RA_OF_ASC_NODE":211.3874,"ARG_OF_PERICENTER":182.2664,"MEAN_ANOMALY":263.852,"EPHEMERIS_TYPE":0,"CLASSIFICATION_TYPE":"U","NORAD_CAT_ID":43700,"ELEMENT_SET_NO":999,"REV_AT_EPOCH":2694,"BSTAR":0,"MEAN_MOTION_DOT":1.45e-6,"MEAN_MOTION_DDOT":0},{"OBJECT_NAME":"FOX-1CLIFF (AO-95)","OBJECT_ID":"2018-099N","EPOCH":"2026-04-05T03:44:48.936480","MEAN_MOTION":15.25168063,"ECCENTRICITY":0.00077477,"INCLINATION":97.4453,"RA_OF_ASC_NODE":155.7354,"ARG_OF_PERICENTER":238.2885,"MEAN_ANOMALY":121.7598,"EPHEMERIS_TYPE":0,"CLASSIFICATION_TYPE":"U","NORAD_CAT_ID":43770,"ELEMENT_SET_NO":999,"REV_AT_EPOCH":40208,"BSTAR":0.00062958901,"MEAN_MOTION_DOT":0.00015748,"MEAN_MOTION_DDOT":0},{"OBJECT_NAME":"ITASAT","OBJECT_ID":"2018-099AE","EPOCH":"2026-04-05T03:26:56.562144","MEAN_MOTION":15.1813563,"ECCENTRICITY":0.00113917,"INCLINATION":97.4109,"RA_OF_ASC_NODE":148.1347,"ARG_OF_PERICENTER":243.3251,"MEAN_ANOMALY":116.6817,"EPHEMERIS_TYPE":0,"CLASSIFICATION_TYPE":"U","NORAD_CAT_ID":43786,"ELEMENT_SET_NO":999,"REV_AT_EPOCH":40182,"BSTAR":0.00046479855,"MEAN_MOTION_DOT":9.44e-5,"MEAN_MOTION_DDOT":0},{"OBJECT_NAME":"JY1SAT (JO-97)","OBJECT_ID":"2018-099AX","EPOCH":"2026-04-05T03:50:32.151840","MEAN_MOTION":15.31389189,"ECCENTRICITY":0.00067531,"INCLINATION":97.4195,"RA_OF_ASC_NODE":157.8469,"ARG_OF_PERICENTER":159.0119,"MEAN_ANOMALY":201.1401,"EPHEMERIS_TYPE":0,"CLASSIFICATION_TYPE":"U","NORAD_CAT_ID":43803,"ELEMENT_SET_NO":999,"REV_AT_EPOCH":40244,"BSTAR":0.00075054376,"MEAN_MOTION_DOT":0.00022732,"MEAN_MOTION_DDOT":0},{"OBJECT_NAME":"UWE-4","OBJECT_ID":"2018-111E","EPOCH":"2026-04-05T05:39:03.048480","MEAN_MOTION":15.41908824,"ECCENTRICITY":0.00068783,"INCLINATION":97.5857,"RA_OF_ASC_NODE":20.5234,"ARG_OF_PERICENTER":210.683,"MEAN_ANOMALY":149.4016,"EPHEMERIS_TYPE":0,"CLASSIFICATION_TYPE":"U","NORAD_CAT_ID":43880,"ELEMENT_SET_NO":999,"REV_AT_EPOCH":39952,"BSTAR":0.00090054265,"MEAN_MOTION_DOT":0.0003835,"MEAN_MOTION_DDOT":0},{"OBJECT_NAME":"TIANYAN 01","OBJECT_ID":"2019-093C","EPOCH":"2026-04-05T06:38:34.434816","MEAN_MOTION":14.8640302,"ECCENTRICITY":0.00128597,"INCLINATION":97.7568,"RA_OF_ASC_NODE":169.2798,"ARG_OF_PERICENTER":332.5768,"MEAN_ANOMALY":27.4767,"EPHEMERIS_TYPE":0,"CLASSIFICATION_TYPE":"U","NORAD_CAT_ID":44881,"ELEMENT_SET_NO":999,"REV_AT_EPOCH":34058,"BSTAR":0.00018754244,"MEAN_MOTION_DOT":1.604e-5,"MEAN_MOTION_DDOT":0},{"OBJECT_NAME":"RS-44 & BREEZE-KM R/B","OBJECT_ID":"2019-096E","EPOCH":"2026-04-05T05:15:10.354176","MEAN_MOTION":12.79747781,"ECCENTRICITY":0.02167683,"INCLINATION":82.5256,"RA_OF_ASC_NODE":28.1874,"ARG_OF_PERICENTER":315.2466,"MEAN_ANOMALY":43.1321,"EPHEMERIS_TYPE":0,"CLASSIFICATION_TYPE":"U","NORAD_CAT_ID":44909,"ELEMENT_SET_NO":999,"REV_AT_EPOCH":29301,"BSTAR":2.3820524e-5,"MEAN_MOTION_DOT":1.5e-7,"MEAN_MOTION_DDOT":0}]
