UWE-3                   
1 39446U 13066AG  26095.14421561  .00005905  00000+0  51308-3 0  9996
2 39446  97.8633  50.7911 0048973 201.3754 158.5422 14.96461292666650
UNISAT-6                
1 40012U 14033C   26095.24019388  .00004828  00000+0  52492-3 0  9991
2 40012  97.7782 249.2953 0044147 309.9374  49.7967 14.87831103635314
DUCHIFAT-1              
1 40021U 14033M   26095.27149655  .00081314  00000+0  12684-2 0  9998
2 40021  98.0571 144.8991 0003099 342.7957  17.3189 15.53558422644398
QB50P1                  
1 40025U 14033R   26094.96602727  .00012738  00000+0  64496-3 0  9994
2 40025  98.1002 101.0367 0010584 113.0107 247.2242 15.17106884641928
LILACSAT-2              
1 40908U 15049K   26095.26750574  .00022032  00000+0  40645-3 0  9998
2 40908  97.4751 129.4274 0008479 145.8025 214.3774 15.49096413584454
FOX-1A (AO-85)          
1 40967U 15058D   26095.29740448  .00003212  00000+0  29544-3 0  9999
2 40967  64.7743 145.4238 0128308  85.2285 276.3465 14.90545783102707
CAS-2T & KS-1Q          
1 41847U 16066G   26095.16667105  .00001305  00000+0  19233-3 0  9996
2 41847  98.3848 171.7229 0342093 351.3202   8.2165 14.44540754494256
RADFXSAT (FOX-1B)       
1 43017U 17073E   26095.21432960  .00010483  00000+0  46996-3 0  9994
2 43017  97.4806 323.9554 0152904 219.8739 139.1180 15.11449824454366
DIWATA-2B               
1 43678U 18084H   26095.27143194  .00002747  00000+0  22509-3 0  9992
2 43678  98.1036 288.4008 0013884  49.4829 310.7600 15.00107256405280
ES'HAIL 2               
1 43700U 18090A   26095.21711404  .00000145  00000+0  00000+0 0  9992
2 43700   0.0180 211.3874 0001275 182.2664 263.8520  1.00269802 26940
FOX-1CLIFF (AO-95)      
1 43770U 18099N   26095.15612195  .00015748  00000+0  62959-3 0  9998
2 43770  97.4453 155.7354 0007747 238.2885 121.7598 15.25168063402080
ITASAT                  
1 43786U 18099AE  26095.14371021  .00009440  00000+0  46480-3 0  9997
2 43786  97.4109 148.1347 0011391 243.3251 116.6817 15.18135630401821
JY1SAT (JO-97)          
1 43803U 18099AX  26095.16009435  .00022732  00000+0  75054-3 0  9994
2 43803  97.4195 157.8469 0006753 159.0119 201.1401 15.31389189402443
UWE-4                   
1 43880U 18111E   26095.23545195  .00038350  00000+0  90054-3 0  9990
2 43880  97.5857  20.5234 0006878 210.6830 149.4016 15.41908824399526
TIANYAN 01              
1 44881U 19093C   26095.27678744  .00001604  00000+0  18754-3 0  9992
2 44881  97.7568 169.2798 0012859 332.5768  27.4767 14.86403020340581
RS-44 & BREEZE-KM R/B   
1 44909U 19096E   26095.21886984  .00000015  00000+0  23821-4 0  9994
2 44909  82.5256  28.1874 0216768 315.2466  43.1321 12.79747781293015
